[{"OBJECT_NAME":"STARLINK-11256 [DTC]","OBJECT_ID":"2024-154B","EPOCH":"2026-03-09T11:12:06.959808","MEAN_MOTION":15.6972679,"ECCENTRICITY":0.00013803,"INCLINATION":53.16,"RA_OF_ASC_NODE":132.0558,"ARG_OF_PERICENTER":87.3306,"MEAN_ANOMALY":272.787,"EPHEMERIS_TYPE":0,"CLASSIFICATION_TYPE":"U","NORAD_CAT_ID":60904,"ELEMENT_SET_NO":999,"REV_AT_EPOCH":8848,"BSTAR":-2.2761905e-5,"MEAN_MOTION_DOT":-3.348e-5,"MEAN_MOTION_DDOT":0},{"OBJECT_NAME":"CZ-2D DEB","OBJECT_ID":"2005-024K","EPOCH":"2026-03-07T20:58:14.771712","MEAN_MOTION":15.70813446,"ECCENTRICITY":0.0005756,"INCLINATION":97.1809,"RA_OF_ASC_NODE":100.1703,"ARG_OF_PERICENTER":144.4044,"MEAN_ANOMALY":215.7604,"EPHEMERIS_TYPE":0,"CLASSIFICATION_TYPE":"U","NORAD_CAT_ID":35271,"ELEMENT_SET_NO":999,"REV_AT_EPOCH":8871,"BSTAR":0.00070506615,"MEAN_MOTION_DOT":0.00088213,"MEAN_MOTION_DDOT":0}]
